{
"type": "FeatureCollection",
"name": "3127388_setores",
"xy_coordinate_resolution": 1e-06,
"features": [
{ "type": "Feature", "properties": { "neighborhood_name": "Sede urbana – setor 002", "population": 238, "population_density": 435.5, "enterprise_count": 26, "tower_count": 0, "health_facility_count": 0, "socioeconomic_index": 47.0, "income_mean_brl": 1691.41, "literacy_rate": 0.924, "sewer_network_rate": 0.97, "water_network_rate": 0.949, "apartment_share": 0.0, "area_km2": 0.546, "aproximado": false, "urbano": true, "estimation_note": "Setor censitário oficial IBGE 2022", "cd_setor": "312738805000002" }, "geometry": { "type": "Polygon", "coordinates": [ [ [ -43.190141, -21.534234 ], [ -43.191043, -21.535261 ], [ -43.191168, -21.535321 ], [ -43.191353, -21.535767 ], [ -43.191576, -21.535946 ], [ -43.191611, -21.536251 ], [ -43.191733, -21.536312 ], [ -43.191604, -21.536435 ], [ -43.191661, -21.536567 ], [ -43.191537, -21.536708 ], [ -43.191538, -21.5369 ], [ -43.19168, -21.536968 ], [ -43.191795, -21.537211 ], [ -43.19223, -21.537419 ], [ -43.192131, -21.537786 ], [ -43.191969, -21.538007 ], [ -43.191609, -21.538212 ], [ -43.191359, -21.538455 ], [ -43.191283, -21.538716 ], [ -43.190879, -21.538899 ], [ -43.190892, -21.539093 ], [ -43.190571, -21.539359 ], [ -43.190367, -21.539401 ], [ -43.190545, -21.541244 ], [ -43.189422, -21.541255 ], [ -43.188832, -21.541179 ], [ -43.188012, -21.540823 ], [ -43.186977, -21.539989 ], [ -43.186143, -21.539492 ], [ -43.184343, -21.538741 ], [ -43.183814, -21.538207 ], [ -43.185151, -21.534383 ], [ -43.185846, -21.533276 ], [ -43.185307, -21.532993 ], [ -43.184316, -21.532257 ], [ -43.184904, -21.531774 ], [ -43.185498, -21.532317 ], [ -43.185795, -21.532462 ], [ -43.188377, -21.533047 ], [ -43.189354, -21.532886 ], [ -43.189771, -21.533022 ], [ -43.190141, -21.534234 ] ] ] } },
{ "type": "Feature", "properties": { "neighborhood_name": "Sede urbana – setor 003", "population": 485, "population_density": 626.9, "enterprise_count": 111, "tower_count": 2, "health_facility_count": 2, "socioeconomic_index": 76.8, "income_mean_brl": 2425.19, "literacy_rate": 0.959, "sewer_network_rate": 0.94, "water_network_rate": 0.904, "apartment_share": null, "area_km2": 0.774, "aproximado": false, "urbano": true, "estimation_note": "Setor censitário oficial IBGE 2022", "cd_setor": "312738805000003" }, "geometry": { "type": "Polygon", "coordinates": [ [ [ -43.200276, -21.538352 ], [ -43.200807, -21.538323 ], [ -43.201991, -21.535614 ], [ -43.202397, -21.536273 ], [ -43.202325, -21.536839 ], [ -43.201947, -21.537781 ], [ -43.202757, -21.537988 ], [ -43.203328, -21.53784 ], [ -43.204515, -21.538252 ], [ -43.206019, -21.539893 ], [ -43.206558, -21.540086 ], [ -43.207198, -21.540114 ], [ -43.207508, -21.540059 ], [ -43.209305, -21.541776 ], [ -43.209372, -21.541988 ], [ -43.209562, -21.542204 ], [ -43.21017, -21.542752 ], [ -43.210583, -21.544374 ], [ -43.210694, -21.544549 ], [ -43.210398, -21.54494 ], [ -43.210396, -21.545623 ], [ -43.211584, -21.547885 ], [ -43.20807, -21.549395 ], [ -43.207632, -21.548051 ], [ -43.204543, -21.543145 ], [ -43.202815, -21.544191 ], [ -43.202338, -21.543685 ], [ -43.201541, -21.543261 ], [ -43.200845, -21.5424 ], [ -43.200004, -21.541517 ], [ -43.199555, -21.541245 ], [ -43.198977, -21.541235 ], [ -43.198437, -21.540933 ], [ -43.20047, -21.538533 ], [ -43.200276, -21.538352 ] ] ] } },
{ "type": "Feature", "properties": { "neighborhood_name": "Sede urbana – setor 004", "population": 274, "population_density": 353.2, "enterprise_count": 18, "tower_count": 0, "health_facility_count": 0, "socioeconomic_index": 84.7, "income_mean_brl": 2757.26, "literacy_rate": 0.945, "sewer_network_rate": 0.964, "water_network_rate": 0.88, "apartment_share": 0.0, "area_km2": 0.776, "aproximado": false, "urbano": true, "estimation_note": "Setor censitário oficial IBGE 2022", "cd_setor": "312738805000004" }, "geometry": { "type": "Polygon", "coordinates": [ [ [ -43.201345, -21.533291 ], [ -43.202046, -21.531697 ], [ -43.203218, -21.530645 ], [ -43.204579, -21.529565 ], [ -43.205564, -21.529249 ], [ -43.206302, -21.528461 ], [ -43.207358, -21.527986 ], [ -43.207689, -21.527726 ], [ -43.208789, -21.527561 ], [ -43.208345, -21.530248 ], [ -43.207739, -21.530231 ], [ -43.207905, -21.531809 ], [ -43.209314, -21.532051 ], [ -43.209754, -21.532223 ], [ -43.211429, -21.533414 ], [ -43.211595, -21.533854 ], [ -43.211782, -21.534094 ], [ -43.212437, -21.535894 ], [ -43.212547, -21.53744 ], [ -43.212181, -21.538364 ], [ -43.211555, -21.539088 ], [ -43.210754, -21.539783 ], [ -43.20988, -21.540106 ], [ -43.20876, -21.540177 ], [ -43.207508, -21.540059 ], [ -43.207396, -21.539815 ], [ -43.207449, -21.53944 ], [ -43.208066, -21.537594 ], [ -43.207949, -21.536852 ], [ -43.207589, -21.535954 ], [ -43.207242, -21.535725 ], [ -43.205546, -21.535296 ], [ -43.203281, -21.535188 ], [ -43.202657, -21.534694 ], [ -43.202647, -21.534316 ], [ -43.202019, -21.534031 ], [ -43.201789, -21.533849 ], [ -43.201639, -21.533354 ], [ -43.201345, -21.533291 ] ] ] } },
{ "type": "Feature", "properties": { "neighborhood_name": "Núcleo urbano Shangri-Lá – setor 005", "population": 32, "population_density": 93.3, "enterprise_count": 13, "tower_count": 0, "health_facility_count": 0, "socioeconomic_index": 90.2, "income_mean_brl": 2516.67, "literacy_rate": 1.0, "sewer_network_rate": null, "water_network_rate": 1.0, "apartment_share": 0.0, "area_km2": 0.343, "aproximado": false, "urbano": true, "estimation_note": "Setor censitário oficial IBGE 2022", "cd_setor": "312738805000005" }, "geometry": { "type": "Polygon", "coordinates": [ [ [ -43.165437, -21.528428 ], [ -43.165003, -21.528333 ], [ -43.165246, -21.527452 ], [ -43.165147, -21.527339 ], [ -43.165608, -21.526531 ], [ -43.166141, -21.526178 ], [ -43.166438, -21.525757 ], [ -43.166938, -21.525431 ], [ -43.16735, -21.524774 ], [ -43.17312, -21.526862 ], [ -43.173138, -21.527405 ], [ -43.173012, -21.527875 ], [ -43.17279, -21.528483 ], [ -43.172515, -21.52886 ], [ -43.172645, -21.529127 ], [ -43.172652, -21.52936 ], [ -43.172207, -21.530196 ], [ -43.171974, -21.53084 ], [ -43.171788, -21.531057 ], [ -43.171067, -21.530674 ], [ -43.165437, -21.528428 ] ] ] } },
{ "type": "Feature", "properties": { "neighborhood_name": "Zona rural – setor 006", "population": 91, "population_density": 1.9, "enterprise_count": 3, "tower_count": 0, "health_facility_count": 0, "socioeconomic_index": 24.4, "income_mean_brl": 1724.83, "literacy_rate": 0.946, "sewer_network_rate": null, "water_network_rate": null, "apartment_share": 0.0, "area_km2": 47.107, "aproximado": false, "urbano": false, "estimation_note": "Setor censitário oficial IBGE 2022", "cd_setor": "312738805000006" }, "geometry": { "type": "Polygon", "coordinates": [ [ [ -43.123182, -21.57101 ], [ -43.123261, -21.570865 ], [ -43.123851, -21.570473 ], [ -43.124231, -21.570081 ], [ -43.125027, -21.568709 ], [ -43.124976, -21.568261 ], [ -43.124308, -21.566571 ], [ -43.124282, -21.566329 ], [ -43.124486, -21.564453 ], [ -43.124449, -21.564212 ], [ -43.124974, -21.562749 ], [ -43.125021, -21.562277 ], [ -43.124971, -21.561748 ], [ -43.12481, -21.561288 ], [ -43.123748, -21.560094 ], [ -43.123378, -21.559462 ], [ -43.123144, -21.559313 ], [ -43.121847, -21.557601 ], [ -43.120726, -21.556718 ], [ -43.119445, -21.556111 ], [ -43.118754, -21.555446 ], [ -43.118433, -21.554917 ], [ -43.118235, -21.554733 ], [ -43.11811, -21.55394 ], [ -43.118094, -21.552444 ], [ -43.11842, -21.55028 ], [ -43.118501, -21.548323 ], [ -43.118574, -21.548047 ], [ -43.118471, -21.546229 ], [ -43.118346, -21.5457 ], [ -43.118479, -21.544687 ], [ -43.118415, -21.543893 ], [ -43.118079, -21.542571 ], [ -43.11798, -21.542307 ], [ -43.117611, -21.54202 ], [ -43.117277, -21.541629 ], [ -43.117017, -21.54094 ], [ -43.116952, -21.539651 ], [ -43.116471, -21.538927 ], [ -43.116286, -21.538767 ], [ -43.115891, -21.538514 ], [ -43.115608, -21.538446 ], [ -43.114735, -21.538494 ], [ -43.113727, -21.538715 ], [ -43.113235, -21.538693 ], [ -43.112902, -21.538314 ], [ -43.112827, -21.53782 ], [ -43.112811, -21.536266 ], [ -43.112686, -21.535737 ], [ -43.111513, -21.533945 ], [ -43.110934, -21.533382 ], [ -43.10943, -21.532281 ], [ -43.109034, -21.531454 ], [ -43.109057, -21.530614 ], [ -43.109338, -21.529865 ], [ -43.109754, -21.529231 ], [ -43.109962, -21.528747 ], [ -43.110131, -21.527424 ], [ -43.110007, -21.527217 ], [ -43.109342, -21.526793 ], [ -43.108837, -21.526552 ], [ -43.108234, -21.526416 ], [ -43.106953, -21.525694 ], [ -43.106485, -21.525373 ], [ -43.106361, -21.525143 ], [ -43.106164, -21.524994 ], [ -43.105547, -21.524017 ], [ -43.105138, -21.522936 ], [ -43.104953, -21.522753 ], [ -43.104493, -21.520705 ], [ -43.103638, -21.518544 ], [ -43.103412, -21.516646 ], [ -43.103654, -21.515219 ], [ -43.103911, -21.514482 ], [ -43.104315, -21.513859 ], [ -43.104412, -21.513387 ], [ -43.104839, -21.512339 ], [ -43.104997, -21.511625 ], [ -43.105169, -21.511372 ], [ -43.105339, -21.510566 ], [ -43.105571, -21.510059 ], [ -43.106036, -21.509172 ], [ -43.106551, -21.508423 ], [ -43.107127, -21.5078 ], [ -43.107885, -21.506291 ], [ -43.108376, -21.505761 ], [ -43.108597, -21.505633 ], [ -43.109883, -21.504043 ], [ -43.11073, -21.503546 ], [ -43.111234, -21.503452 ], [ -43.111775, -21.503463 ], [ -43.112034, -21.503543 ], [ -43.113032, -21.504392 ], [ -43.114005, -21.504976 ], [ -43.115223, -21.505319 ], [ -43.1159, -21.505605 ], [ -43.116331, -21.505684 ], [ -43.117622, -21.505624 ], [ -43.118633, -21.506714 ], [ -43.118905, -21.507208 ], [ -43.119252, -21.508243 ], [ -43.119316, -21.509129 ], [ -43.119232, -21.509716 ], [ -43.119061, -21.510303 ], [ -43.118707, -21.511075 ], [ -43.118547, -21.511248 ], [ -43.118301, -21.511306 ], [ -43.117811, -21.511653 ], [ -43.117173, -21.512161 ], [ -43.117038, -21.512345 ], [ -43.117002, -21.512598 ], [ -43.1172, -21.51307 ], [ -43.117655, -21.513287 ], [ -43.118688, -21.513377 ], [ -43.118946, -21.513319 ], [ -43.119682, -21.512649 ], [ -43.120333, -21.512188 ], [ -43.121427, -21.511955 ], [ -43.123, -21.511882 ], [ -43.123221, -21.511789 ], [ -43.124009, -21.511833 ], [ -43.12423, -21.511925 ], [ -43.124464, -21.512085 ], [ -43.124563, -21.512292 ], [ -43.124565, -21.512776 ], [ -43.124468, -21.513271 ], [ -43.124296, -21.513421 ], [ -43.124161, -21.513686 ], [ -43.123662, -21.515401 ], [ -43.123641, -21.516656 ], [ -43.123777, -21.517139 ], [ -43.123925, -21.517322 ], [ -43.124086, -21.517495 ], [ -43.124529, -21.51777 ], [ -43.124763, -21.517827 ], [ -43.125379, -21.518274 ], [ -43.125873, -21.518929 ], [ -43.12655, -21.519226 ], [ -43.127165, -21.519328 ], [ -43.12778, -21.519338 ], [ -43.128321, -21.519164 ], [ -43.129464, -21.518966 ], [ -43.13019, -21.519114 ], [ -43.130399, -21.519228 ], [ -43.130893, -21.519848 ], [ -43.131681, -21.520341 ], [ -43.132261, -21.520858 ], [ -43.132544, -21.520949 ], [ -43.133036, -21.521017 ], [ -43.134032, -21.521003 ], [ -43.134794, -21.520817 ], [ -43.136047, -21.520238 ], [ -43.136648, -21.5198 ], [ -43.137383, -21.518981 ], [ -43.137862, -21.518565 ], [ -43.138378, -21.518529 ], [ -43.138685, -21.518379 ], [ -43.138931, -21.518217 ], [ -43.139311, -21.517802 ], [ -43.140489, -21.517063 ], [ -43.143228, -21.515894 ], [ -43.144333, -21.515212 ], [ -43.145436, -21.514139 ], [ -43.145682, -21.514 ], [ -43.146493, -21.513871 ], [ -43.147281, -21.513996 ], [ -43.147934, -21.514455 ], [ -43.148341, -21.515144 ], [ -43.149687, -21.516855 ], [ -43.15013, -21.517142 ], [ -43.151202, -21.517599 ], [ -43.151526, -21.51914 ], [ -43.151602, -21.520003 ], [ -43.15216, -21.521474 ], [ -43.15343, -21.522737 ], [ -43.154408, -21.524668 ], [ -43.154605, -21.524978 ], [ -43.155185, -21.525586 ], [ -43.155272, -21.525874 ], [ -43.15589, -21.526677 ], [ -43.156518, -21.527228 ], [ -43.157208, -21.527572 ], [ -43.158045, -21.527673 ], [ -43.158695, -21.527245 ], [ -43.159467, -21.52615 ], [ -43.159883, -21.525424 ], [ -43.159956, -21.525171 ], [ -43.160152, -21.524963 ], [ -43.160162, -21.524215 ], [ -43.159827, -21.523284 ], [ -43.159295, -21.522365 ], [ -43.159332, -21.522089 ], [ -43.159515, -21.521662 ], [ -43.159968, -21.521063 ], [ -43.161145, -21.519771 ], [ -43.16183, -21.518641 ], [ -43.161927, -21.518388 ], [ -43.162096, -21.517214 ], [ -43.162117, -21.516017 ], [ -43.162419, -21.51421 ], [ -43.163545, -21.515509 ], [ -43.163904, -21.516239 ], [ -43.164467, -21.517796 ], [ -43.164887, -21.518633 ], [ -43.165507, -21.519354 ], [ -43.166171, -21.519835 ], [ -43.166808, -21.520138 ], [ -43.173747, -21.521589 ], [ -43.174817, -21.521935 ], [ -43.175275, -21.522198 ], [ -43.175731, -21.522588 ], [ -43.176985, -21.524179 ], [ -43.177671, -21.524856 ], [ -43.178349, -21.525293 ], [ -43.180437, -21.526123 ], [ -43.180974, -21.526584 ], [ -43.181287, -21.527023 ], [ -43.181854, -21.528675 ], [ -43.18214, -21.529173 ], [ -43.184904, -21.531774 ], [ -43.184316, -21.532257 ], [ -43.185307, -21.532993 ], [ -43.185846, -21.533276 ], [ -43.185151, -21.534383 ], [ -43.183814, -21.538207 ], [ -43.184343, -21.538741 ], [ -43.186143, -21.539492 ], [ -43.186977, -21.539989 ], [ -43.188012, -21.540823 ], [ -43.188832, -21.541179 ], [ -43.189422, -21.541255 ], [ -43.190545, -21.541244 ], [ -43.190367, -21.539401 ], [ -43.190571, -21.539359 ], [ -43.190892, -21.539093 ], [ -43.190879, -21.538899 ], [ -43.191283, -21.538716 ], [ -43.191359, -21.538455 ], [ -43.191609, -21.538212 ], [ -43.191969, -21.538007 ], [ -43.192131, -21.537786 ], [ -43.19223, -21.537419 ], [ -43.191795, -21.537211 ], [ -43.19168, -21.536968 ], [ -43.191538, -21.5369 ], [ -43.191537, -21.536708 ], [ -43.191661, -21.536567 ], [ -43.191604, -21.536435 ], [ -43.191733, -21.536312 ], [ -43.191611, -21.536251 ], [ -43.191576, -21.535946 ], [ -43.191353, -21.535767 ], [ -43.191168, -21.535321 ], [ -43.191043, -21.535261 ], [ -43.190141, -21.534234 ], [ -43.190891, -21.534495 ], [ -43.191492, -21.534558 ], [ -43.192154, -21.534445 ], [ -43.193242, -21.534432 ], [ -43.194924, -21.534772 ], [ -43.195383, -21.535084 ], [ -43.195301, -21.535425 ], [ -43.195601, -21.536693 ], [ -43.196382, -21.537847 ], [ -43.197216, -21.538471 ], [ -43.198727, -21.539185 ], [ -43.198437, -21.540933 ], [ -43.195209, -21.544703 ], [ -43.194861, -21.544958 ], [ -43.19456, -21.545577 ], [ -43.194131, -21.545959 ], [ -43.193661, -21.546246 ], [ -43.193195, -21.546949 ], [ -43.191382, -21.548139 ], [ -43.190504, -21.548575 ], [ -43.18976, -21.548835 ], [ -43.189489, -21.549273 ], [ -43.189277, -21.54945 ], [ -43.188903, -21.549579 ], [ -43.188206, -21.549657 ], [ -43.187649, -21.549872 ], [ -43.187152, -21.550848 ], [ -43.186806, -21.550871 ], [ -43.185881, -21.550688 ], [ -43.185231, -21.550724 ], [ -43.184962, -21.550827 ], [ -43.184269, -21.551304 ], [ -43.183387, -21.552686 ], [ -43.183392, -21.553213 ], [ -43.183072, -21.553601 ], [ -43.182468, -21.553752 ], [ -43.18218, -21.554239 ], [ -43.181639, -21.554458 ], [ -43.18079, -21.555018 ], [ -43.180384, -21.555155 ], [ -43.180203, -21.555329 ], [ -43.179864, -21.555983 ], [ -43.179634, -21.557024 ], [ -43.178906, -21.558287 ], [ -43.178358, -21.559074 ], [ -43.177767, -21.559236 ], [ -43.176721, -21.559024 ], [ -43.175824, -21.559017 ], [ -43.174719, -21.559313 ], [ -43.173422, -21.560117 ], [ -43.172749, -21.56032 ], [ -43.172417, -21.560287 ], [ -43.171979, -21.559888 ], [ -43.171163, -21.559568 ], [ -43.170999, -21.559759 ], [ -43.17097, -21.559913 ], [ -43.171654, -21.560455 ], [ -43.171616, -21.560521 ], [ -43.170301, -21.560009 ], [ -43.169824, -21.559908 ], [ -43.168795, -21.559907 ], [ -43.168172, -21.560124 ], [ -43.167902, -21.561256 ], [ -43.167786, -21.561388 ], [ -43.166954, -21.561946 ], [ -43.165967, -21.562417 ], [ -43.164565, -21.563312 ], [ -43.163753, -21.564021 ], [ -43.163032, -21.564934 ], [ -43.162683, -21.56589 ], [ -43.162377, -21.566263 ], [ -43.16169, -21.566871 ], [ -43.161302, -21.567091 ], [ -43.159614, -21.567135 ], [ -43.158105, -21.567486 ], [ -43.157859, -21.5677 ], [ -43.157432, -21.568406 ], [ -43.156778, -21.568625 ], [ -43.156297, -21.569486 ], [ -43.156008, -21.570799 ], [ -43.155804, -21.572811 ], [ -43.155873, -21.57406 ], [ -43.155741, -21.575155 ], [ -43.155686, -21.576607 ], [ -43.155463, -21.577339 ], [ -43.155155, -21.577857 ], [ -43.154718, -21.578345 ], [ -43.154033, -21.579574 ], [ -43.152483, -21.581476 ], [ -43.150357, -21.584271 ], [ -43.149319, -21.585115 ], [ -43.147822, -21.586033 ], [ -43.147316, -21.586504 ], [ -43.147249, -21.587212 ], [ -43.147406, -21.587824 ], [ -43.147672, -21.588303 ], [ -43.147659, -21.588449 ], [ -43.147548, -21.588749 ], [ -43.147072, -21.589307 ], [ -43.147087, -21.589887 ], [ -43.146958, -21.590238 ], [ -43.146664, -21.590611 ], [ -43.14586, -21.590889 ], [ -43.145312, -21.591379 ], [ -43.144723, -21.59227 ], [ -43.144333, -21.592598 ], [ -43.143767, -21.593299 ], [ -43.143486, -21.593772 ], [ -43.143063, -21.594209 ], [ -43.142951, -21.594546 ], [ -43.142827, -21.595513 ], [ -43.142889, -21.596533 ], [ -43.142399, -21.597334 ], [ -43.142159, -21.598902 ], [ -43.14183, -21.599335 ], [ -43.14141, -21.599395 ], [ -43.140699, -21.5989 ], [ -43.140551, -21.598658 ], [ -43.140156, -21.598372 ], [ -43.139097, -21.597902 ], [ -43.137915, -21.597549 ], [ -43.136611, -21.597724 ], [ -43.135481, -21.598303 ], [ -43.135173, -21.598303 ], [ -43.134705, -21.598166 ], [ -43.134346, -21.597511 ], [ -43.134073, -21.596615 ], [ -43.133703, -21.596121 ], [ -43.133133, -21.594822 ], [ -43.13291, -21.594109 ], [ -43.132784, -21.593108 ], [ -43.132866, -21.591658 ], [ -43.132629, -21.590658 ], [ -43.132528, -21.589599 ], [ -43.132355, -21.589427 ], [ -43.131409, -21.589763 ], [ -43.130092, -21.589732 ], [ -43.129107, -21.589561 ], [ -43.1279, -21.589001 ], [ -43.127777, -21.588794 ], [ -43.127404, -21.587414 ], [ -43.1267, -21.586622 ], [ -43.126029, -21.584207 ], [ -43.12541, -21.582816 ], [ -43.125422, -21.582517 ], [ -43.124964, -21.581494 ], [ -43.124445, -21.580632 ], [ -43.12405, -21.580196 ], [ -43.123346, -21.579127 ], [ -43.122333, -21.577944 ], [ -43.121765, -21.577048 ], [ -43.121787, -21.576001 ], [ -43.122104, -21.574976 ], [ -43.122703, -21.573778 ], [ -43.122738, -21.573041 ], [ -43.123182, -21.57101 ] ], [ [ -43.165437, -21.528428 ], [ -43.171067, -21.530674 ], [ -43.171788, -21.531057 ], [ -43.171974, -21.53084 ], [ -43.172207, -21.530196 ], [ -43.172652, -21.52936 ], [ -43.172645, -21.529127 ], [ -43.172515, -21.52886 ], [ -43.17279, -21.528483 ], [ -43.173012, -21.527875 ], [ -43.173138, -21.527405 ], [ -43.17312, -21.526862 ], [ -43.16735, -21.524774 ], [ -43.166938, -21.525431 ], [ -43.166438, -21.525757 ], [ -43.166141, -21.526178 ], [ -43.165608, -21.526531 ], [ -43.165147, -21.527339 ], [ -43.165246, -21.527452 ], [ -43.165003, -21.528333 ], [ -43.165437, -21.528428 ] ] ] } },
{ "type": "Feature", "properties": { "neighborhood_name": "Zona rural – setor 007", "population": 521, "population_density": 10.1, "enterprise_count": 7, "tower_count": 0, "health_facility_count": 0, "socioeconomic_index": 16.0, "income_mean_brl": 1909.33, "literacy_rate": 0.91, "sewer_network_rate": 0.016, "water_network_rate": null, "apartment_share": 0.0, "area_km2": 51.707, "aproximado": false, "urbano": false, "estimation_note": "Setor censitário oficial IBGE 2022", "cd_setor": "312738805000007" }, "geometry": { "type": "Polygon", "coordinates": [ [ [ -43.14141, -21.599395 ], [ -43.14183, -21.599335 ], [ -43.142159, -21.598902 ], [ -43.142337, -21.597521 ], [ -43.142889, -21.596533 ], [ -43.142827, -21.595513 ], [ -43.142951, -21.594546 ], [ -43.143063, -21.594209 ], [ -43.143486, -21.593772 ], [ -43.143767, -21.593299 ], [ -43.144333, -21.592598 ], [ -43.144723, -21.59227 ], [ -43.145312, -21.591379 ], [ -43.14586, -21.590889 ], [ -43.146513, -21.590698 ], [ -43.146888, -21.590399 ], [ -43.147087, -21.589887 ], [ -43.147072, -21.589307 ], [ -43.147548, -21.588749 ], [ -43.147659, -21.588449 ], [ -43.147672, -21.588303 ], [ -43.147406, -21.587824 ], [ -43.147249, -21.587212 ], [ -43.147316, -21.586504 ], [ -43.147822, -21.586033 ], [ -43.149319, -21.585115 ], [ -43.150357, -21.584271 ], [ -43.152483, -21.581476 ], [ -43.154033, -21.579574 ], [ -43.154718, -21.578345 ], [ -43.155155, -21.577857 ], [ -43.155463, -21.577339 ], [ -43.155686, -21.576607 ], [ -43.155741, -21.575155 ], [ -43.155873, -21.57406 ], [ -43.155804, -21.572811 ], [ -43.156008, -21.570799 ], [ -43.156297, -21.569486 ], [ -43.156778, -21.568625 ], [ -43.157432, -21.568406 ], [ -43.157859, -21.5677 ], [ -43.158105, -21.567486 ], [ -43.159614, -21.567135 ], [ -43.161302, -21.567091 ], [ -43.16169, -21.566871 ], [ -43.162377, -21.566263 ], [ -43.162683, -21.56589 ], [ -43.163032, -21.564934 ], [ -43.163753, -21.564021 ], [ -43.164565, -21.563312 ], [ -43.165967, -21.562417 ], [ -43.166954, -21.561946 ], [ -43.167786, -21.561388 ], [ -43.167902, -21.561256 ], [ -43.168172, -21.560124 ], [ -43.168795, -21.559907 ], [ -43.169824, -21.559908 ], [ -43.170301, -21.560009 ], [ -43.171616, -21.560521 ], [ -43.171654, -21.560455 ], [ -43.17097, -21.559913 ], [ -43.170999, -21.559759 ], [ -43.171163, -21.559568 ], [ -43.171979, -21.559888 ], [ -43.172417, -21.560287 ], [ -43.172749, -21.56032 ], [ -43.173422, -21.560117 ], [ -43.174719, -21.559313 ], [ -43.175824, -21.559017 ], [ -43.176721, -21.559024 ], [ -43.177767, -21.559236 ], [ -43.178358, -21.559074 ], [ -43.178906, -21.558287 ], [ -43.179634, -21.557024 ], [ -43.179864, -21.555983 ], [ -43.180203, -21.555329 ], [ -43.180384, -21.555155 ], [ -43.18079, -21.555018 ], [ -43.181639, -21.554458 ], [ -43.18218, -21.554239 ], [ -43.182468, -21.553752 ], [ -43.183072, -21.553601 ], [ -43.183392, -21.553213 ], [ -43.183387, -21.552686 ], [ -43.184269, -21.551304 ], [ -43.184962, -21.550827 ], [ -43.185231, -21.550724 ], [ -43.185881, -21.550688 ], [ -43.186806, -21.550871 ], [ -43.187152, -21.550848 ], [ -43.187649, -21.549872 ], [ -43.188206, -21.549657 ], [ -43.188903, -21.549579 ], [ -43.189277, -21.54945 ], [ -43.189489, -21.549273 ], [ -43.18976, -21.548835 ], [ -43.190504, -21.548575 ], [ -43.191382, -21.548139 ], [ -43.193195, -21.546949 ], [ -43.193661, -21.546246 ], [ -43.194131, -21.545959 ], [ -43.19456, -21.545577 ], [ -43.194861, -21.544958 ], [ -43.195209, -21.544703 ], [ -43.198437, -21.540933 ], [ -43.198977, -21.541235 ], [ -43.199555, -21.541245 ], [ -43.200004, -21.541517 ], [ -43.200845, -21.5424 ], [ -43.201541, -21.543261 ], [ -43.202338, -21.543685 ], [ -43.202815, -21.544191 ], [ -43.204543, -21.543145 ], [ -43.207632, -21.548051 ], [ -43.20807, -21.549395 ], [ -43.209413, -21.55515 ], [ -43.209623, -21.55571 ], [ -43.210051, -21.556452 ], [ -43.210375, -21.556891 ], [ -43.210933, -21.55742 ], [ -43.211377, -21.557753 ], [ -43.214917, -21.559679 ], [ -43.217573, -21.562078 ], [ -43.218435, -21.562732 ], [ -43.219262, -21.563015 ], [ -43.219853, -21.563101 ], [ -43.22284, -21.563296 ], [ -43.223372, -21.563439 ], [ -43.223878, -21.563889 ], [ -43.228712, -21.570393 ], [ -43.229023, -21.570696 ], [ -43.229829, -21.571253 ], [ -43.232174, -21.572174 ], [ -43.233601, -21.573783 ], [ -43.234186, -21.57429 ], [ -43.236457, -21.575711 ], [ -43.235649, -21.576703 ], [ -43.234998, -21.577073 ], [ -43.23479, -21.577281 ], [ -43.23408, -21.578422 ], [ -43.233762, -21.578803 ], [ -43.232805, -21.579589 ], [ -43.232094, -21.580373 ], [ -43.231849, -21.580754 ], [ -43.231566, -21.580824 ], [ -43.230365, -21.582128 ], [ -43.23012, -21.582266 ], [ -43.229357, -21.582257 ], [ -43.229049, -21.582327 ], [ -43.227743, -21.58179 ], [ -43.227227, -21.581769 ], [ -43.226993, -21.581839 ], [ -43.226687, -21.582231 ], [ -43.226796, -21.58369 ], [ -43.226386, -21.584245 ], [ -43.226339, -21.584913 ], [ -43.226181, -21.585385 ], [ -43.225347, -21.586032 ], [ -43.224817, -21.586022 ], [ -43.224374, -21.58577 ], [ -43.223919, -21.585887 ], [ -43.223663, -21.586601 ], [ -43.223485, -21.588592 ], [ -43.223255, -21.589709 ], [ -43.222806, -21.591333 ], [ -43.222232, -21.592796 ], [ -43.221362, -21.593674 ], [ -43.220379, -21.594102 ], [ -43.219212, -21.594877 ], [ -43.218427, -21.595627 ], [ -43.217888, -21.596204 ], [ -43.217778, -21.596411 ], [ -43.217779, -21.596665 ], [ -43.217547, -21.597367 ], [ -43.217563, -21.598311 ], [ -43.21818, -21.598804 ], [ -43.218267, -21.599045 ], [ -43.21817, -21.599494 ], [ -43.217718, -21.60037 ], [ -43.217559, -21.600842 ], [ -43.217525, -21.601579 ], [ -43.217724, -21.602326 ], [ -43.217726, -21.602821 ], [ -43.21742, -21.603489 ], [ -43.216157, -21.604817 ], [ -43.213863, -21.606895 ], [ -43.213472, -21.607552 ], [ -43.213414, -21.608783 ], [ -43.213726, -21.60999 ], [ -43.214801, -21.611276 ], [ -43.215381, -21.611723 ], [ -43.216305, -21.612031 ], [ -43.217622, -21.612131 ], [ -43.218114, -21.612037 ], [ -43.219257, -21.611608 ], [ -43.219749, -21.611503 ], [ -43.221139, -21.611442 ], [ -43.22189, -21.61152 ], [ -43.222086, -21.611381 ], [ -43.222615, -21.611391 ], [ -43.222837, -21.611471 ], [ -43.223244, -21.611711 ], [ -43.223702, -21.612585 ], [ -43.224122, -21.612871 ], [ -43.224628, -21.613422 ], [ -43.225343, -21.613661 ], [ -43.227104, -21.614001 ], [ -43.228903, -21.614663 ], [ -43.229298, -21.614984 ], [ -43.229593, -21.615087 ], [ -43.229976, -21.615397 ], [ -43.23015, -21.615891 ], [ -43.231089, -21.616947 ], [ -43.231176, -21.617188 ], [ -43.231658, -21.617808 ], [ -43.231745, -21.618061 ], [ -43.231623, -21.61851 ], [ -43.23062, -21.62017 ], [ -43.230609, -21.620654 ], [ -43.230872, -21.621873 ], [ -43.230899, -21.622609 ], [ -43.23058, -21.622955 ], [ -43.229511, -21.623258 ], [ -43.22892, -21.623282 ], [ -43.228367, -21.623503 ], [ -43.227728, -21.623873 ], [ -43.22757, -21.624311 ], [ -43.227522, -21.624806 ], [ -43.227609, -21.625035 ], [ -43.228647, -21.626091 ], [ -43.228808, -21.626528 ], [ -43.2287, -21.627265 ], [ -43.228334, -21.628221 ], [ -43.227709, -21.629074 ], [ -43.226299, -21.630597 ], [ -43.226226, -21.630828 ], [ -43.226393, -21.631354 ], [ -43.226199, -21.631462 ], [ -43.224703, -21.632984 ], [ -43.223855, -21.633458 ], [ -43.223326, -21.633402 ], [ -43.221782, -21.631451 ], [ -43.22108, -21.631234 ], [ -43.220095, -21.631122 ], [ -43.21959, -21.630928 ], [ -43.218948, -21.630366 ], [ -43.218849, -21.630159 ], [ -43.21876, -21.629262 ], [ -43.218673, -21.629032 ], [ -43.21653, -21.628083 ], [ -43.215433, -21.627419 ], [ -43.214445, -21.626524 ], [ -43.213717, -21.625617 ], [ -43.213483, -21.625583 ], [ -43.213336, -21.625768 ], [ -43.212909, -21.626942 ], [ -43.212602, -21.627369 ], [ -43.211989, -21.627865 ], [ -43.211144, -21.629283 ], [ -43.210138, -21.630102 ], [ -43.209929, -21.630241 ], [ -43.209695, -21.630276 ], [ -43.208661, -21.630083 ], [ -43.207269, -21.629362 ], [ -43.207084, -21.629201 ], [ -43.206367, -21.628087 ], [ -43.205996, -21.627674 ], [ -43.20459, -21.626482 ], [ -43.204318, -21.626022 ], [ -43.203417, -21.625104 ], [ -43.203183, -21.625047 ], [ -43.202949, -21.625128 ], [ -43.202202, -21.626235 ], [ -43.201957, -21.626362 ], [ -43.199989, -21.626862 ], [ -43.199731, -21.626782 ], [ -43.199251, -21.626772 ], [ -43.198807, -21.626531 ], [ -43.198498, -21.626118 ], [ -43.198152, -21.625348 ], [ -43.197977, -21.624624 ], [ -43.197861, -21.622887 ], [ -43.197539, -21.621944 ], [ -43.197254, -21.621554 ], [ -43.19702, -21.621405 ], [ -43.19553, -21.621041 ], [ -43.195161, -21.620754 ], [ -43.194962, -21.620088 ], [ -43.194814, -21.619915 ], [ -43.194046, -21.618284 ], [ -43.193809, -21.61733 ], [ -43.1935, -21.616629 ], [ -43.192475, -21.615481 ], [ -43.192005, -21.614596 ], [ -43.192053, -21.614101 ], [ -43.192273, -21.613618 ], [ -43.192777, -21.613409 ], [ -43.193157, -21.613132 ], [ -43.193598, -21.612521 ], [ -43.193781, -21.612038 ], [ -43.193435, -21.611452 ], [ -43.193102, -21.611096 ], [ -43.192461, -21.610718 ], [ -43.192301, -21.610534 ], [ -43.191352, -21.610157 ], [ -43.190156, -21.609298 ], [ -43.189676, -21.609034 ], [ -43.18895, -21.608909 ], [ -43.187476, -21.609765 ], [ -43.186468, -21.610124 ], [ -43.185793, -21.610505 ], [ -43.184808, -21.610462 ], [ -43.183004, -21.611985 ], [ -43.18222, -21.612919 ], [ -43.181655, -21.613334 ], [ -43.181175, -21.613301 ], [ -43.180497, -21.612865 ], [ -43.179425, -21.612385 ], [ -43.178921, -21.612421 ], [ -43.178651, -21.612513 ], [ -43.17768, -21.613034 ], [ -43.177176, -21.613219 ], [ -43.176647, -21.613174 ], [ -43.175908, -21.612969 ], [ -43.175392, -21.612993 ], [ -43.174987, -21.613247 ], [ -43.174494, -21.613226 ], [ -43.174014, -21.613146 ], [ -43.173288, -21.612849 ], [ -43.172796, -21.612804 ], [ -43.172562, -21.612713 ], [ -43.172082, -21.612737 ], [ -43.170914, -21.613131 ], [ -43.170288, -21.613558 ], [ -43.170153, -21.613823 ], [ -43.169626, -21.61433 ], [ -43.169368, -21.614711 ], [ -43.169116, -21.616897 ], [ -43.169237, -21.617618 ], [ -43.169086, -21.617714 ], [ -43.168633, -21.61772 ], [ -43.168404, -21.617665 ], [ -43.167134, -21.616771 ], [ -43.166419, -21.616428 ], [ -43.165139, -21.616443 ], [ -43.164622, -21.61626 ], [ -43.16403, -21.615801 ], [ -43.163745, -21.615342 ], [ -43.163571, -21.614859 ], [ -43.163582, -21.614145 ], [ -43.163789, -21.613639 ], [ -43.164782, -21.612209 ], [ -43.165137, -21.611782 ], [ -43.165653, -21.611459 ], [ -43.16618, -21.610825 ], [ -43.166437, -21.610375 ], [ -43.16641, -21.60942 ], [ -43.166046, -21.607062 ], [ -43.165836, -21.606648 ], [ -43.165638, -21.606511 ], [ -43.164863, -21.606513 ], [ -43.164161, -21.606377 ], [ -43.16283, -21.605598 ], [ -43.161587, -21.605532 ], [ -43.161082, -21.60543 ], [ -43.158124, -21.603619 ], [ -43.157642, -21.603114 ], [ -43.156594, -21.602449 ], [ -43.155965, -21.601853 ], [ -43.155397, -21.601026 ], [ -43.154591, -21.598991 ], [ -43.154241, -21.59722 ], [ -43.153859, -21.596899 ], [ -43.153367, -21.596854 ], [ -43.152898, -21.596648 ], [ -43.152394, -21.596557 ], [ -43.15211, -21.596454 ], [ -43.151974, -21.596248 ], [ -43.15174, -21.596168 ], [ -43.150769, -21.596389 ], [ -43.149332, -21.597209 ], [ -43.148988, -21.597555 ], [ -43.1484, -21.598477 ], [ -43.14732, -21.599297 ], [ -43.146386, -21.599564 ], [ -43.145795, -21.5996 ], [ -43.145611, -21.599739 ], [ -43.145304, -21.599809 ], [ -43.14272, -21.599781 ], [ -43.141932, -21.599644 ], [ -43.14141, -21.599395 ] ] ] } },
{ "type": "Feature", "properties": { "neighborhood_name": "Zona rural – setor 008", "population": 289, "population_density": 6.0, "enterprise_count": 7, "tower_count": 0, "health_facility_count": 0, "socioeconomic_index": 30.6, "income_mean_brl": 2280.55, "literacy_rate": 0.908, "sewer_network_rate": null, "water_network_rate": 0.098, "apartment_share": 0.0, "area_km2": 48.3, "aproximado": false, "urbano": false, "estimation_note": "Setor censitário oficial IBGE 2022", "cd_setor": "312738805000008" }, "geometry": { "type": "Polygon", "coordinates": [ [ [ -43.235355, -21.494852 ], [ -43.235945, -21.495022 ], [ -43.236486, -21.495029 ], [ -43.238438, -21.494735 ], [ -43.24113, -21.494791 ], [ -43.242367, -21.494308 ], [ -43.242883, -21.494234 ], [ -43.243044, -21.494428 ], [ -43.243035, -21.494659 ], [ -43.242735, -21.495421 ], [ -43.242588, -21.496619 ], [ -43.242623, -21.49885 ], [ -43.242714, -21.499333 ], [ -43.243087, -21.499686 ], [ -43.243671, -21.499925 ], [ -43.244295, -21.500393 ], [ -43.24474, -21.501024 ], [ -43.245497, -21.503081 ], [ -43.245781, -21.503495 ], [ -43.246495, -21.503527 ], [ -43.247576, -21.503363 ], [ -43.248622, -21.503394 ], [ -43.249077, -21.503611 ], [ -43.249891, -21.504348 ], [ -43.250405, -21.504629 ], [ -43.251473, -21.504876 ], [ -43.252529, -21.504542 ], [ -43.253279, -21.504564 ], [ -43.253967, -21.504942 ], [ -43.254963, -21.505711 ], [ -43.256057, -21.505871 ], [ -43.256757, -21.506146 ], [ -43.256978, -21.506307 ], [ -43.257458, -21.506927 ], [ -43.258087, -21.508099 ], [ -43.259034, -21.509235 ], [ -43.259342, -21.50989 ], [ -43.260351, -21.510993 ], [ -43.260819, -21.511739 ], [ -43.26093, -21.51221 ], [ -43.261472, -21.513152 ], [ -43.262173, -21.513933 ], [ -43.262554, -21.514197 ], [ -43.262752, -21.514645 ], [ -43.262704, -21.515404 ], [ -43.262179, -21.517646 ], [ -43.262155, -21.518566 ], [ -43.26147, -21.520406 ], [ -43.261004, -21.520936 ], [ -43.260722, -21.521511 ], [ -43.260379, -21.521902 ], [ -43.259875, -21.522018 ], [ -43.259384, -21.522018 ], [ -43.258818, -21.521915 ], [ -43.258561, -21.522019 ], [ -43.257971, -21.522054 ], [ -43.25743, -21.522147 ], [ -43.256939, -21.522481 ], [ -43.256351, -21.523183 ], [ -43.255591, -21.524598 ], [ -43.255395, -21.525069 ], [ -43.255372, -21.525851 ], [ -43.255655, -21.526322 ], [ -43.256442, -21.527149 ], [ -43.257021, -21.528091 ], [ -43.257355, -21.529619 ], [ -43.25754, -21.530056 ], [ -43.258179, -21.530538 ], [ -43.259003, -21.530836 ], [ -43.259175, -21.530985 ], [ -43.260061, -21.53211 ], [ -43.260308, -21.532535 ], [ -43.260333, -21.533363 ], [ -43.260176, -21.535099 ], [ -43.260177, -21.535904 ], [ -43.260376, -21.53741 ], [ -43.260512, -21.537881 ], [ -43.261165, -21.53919 ], [ -43.261669, -21.539811 ], [ -43.262051, -21.540649 ], [ -43.263223, -21.543982 ], [ -43.263335, -21.54474 ], [ -43.263336, -21.54551 ], [ -43.263165, -21.546269 ], [ -43.263203, -21.54674 ], [ -43.263069, -21.547522 ], [ -43.262775, -21.548189 ], [ -43.262284, -21.548903 ], [ -43.261782, -21.549915 ], [ -43.261353, -21.550525 ], [ -43.261144, -21.550663 ], [ -43.260678, -21.551549 ], [ -43.260507, -21.552515 ], [ -43.26035, -21.554354 ], [ -43.26002, -21.555343 ], [ -43.259678, -21.557321 ], [ -43.259656, -21.55862 ], [ -43.259755, -21.559229 ], [ -43.260063, -21.560114 ], [ -43.260753, -21.560918 ], [ -43.260987, -21.561354 ], [ -43.261073, -21.561906 ], [ -43.26094, -21.562837 ], [ -43.261063, -21.563078 ], [ -43.261309, -21.563112 ], [ -43.262465, -21.563858 ], [ -43.263265, -21.564788 ], [ -43.263795, -21.565627 ], [ -43.26456, -21.567822 ], [ -43.264597, -21.56835 ], [ -43.264463, -21.568787 ], [ -43.264168, -21.569167 ], [ -43.263592, -21.570306 ], [ -43.262991, -21.571226 ], [ -43.262858, -21.572399 ], [ -43.262661, -21.572606 ], [ -43.262207, -21.572883 ], [ -43.260966, -21.57324 ], [ -43.2605, -21.573448 ], [ -43.259701, -21.573989 ], [ -43.258855, -21.57499 ], [ -43.258277, -21.575118 ], [ -43.257798, -21.575336 ], [ -43.256534, -21.5762 ], [ -43.256178, -21.576557 ], [ -43.254323, -21.577352 ], [ -43.253573, -21.577388 ], [ -43.253352, -21.577296 ], [ -43.252958, -21.576963 ], [ -43.252601, -21.576527 ], [ -43.252367, -21.576067 ], [ -43.252157, -21.575343 ], [ -43.251887, -21.575159 ], [ -43.251149, -21.57485 ], [ -43.25046, -21.574219 ], [ -43.249802, -21.573855 ], [ -43.2495, -21.573551 ], [ -43.248986, -21.573405 ], [ -43.24821, -21.573315 ], [ -43.245036, -21.573337 ], [ -43.244211, -21.573109 ], [ -43.243719, -21.573111 ], [ -43.242622, -21.57255 ], [ -43.242462, -21.572367 ], [ -43.241611, -21.571863 ], [ -43.241278, -21.571542 ], [ -43.240822, -21.571394 ], [ -43.240576, -21.571394 ], [ -43.240098, -21.571879 ], [ -43.239511, -21.572974 ], [ -43.239427, -21.573446 ], [ -43.239145, -21.573873 ], [ -43.238201, -21.57467 ], [ -43.236457, -21.575711 ], [ -43.234186, -21.57429 ], [ -43.233601, -21.573783 ], [ -43.232174, -21.572174 ], [ -43.229829, -21.571253 ], [ -43.229023, -21.570696 ], [ -43.228712, -21.570393 ], [ -43.223878, -21.563889 ], [ -43.223372, -21.563439 ], [ -43.22284, -21.563296 ], [ -43.219853, -21.563101 ], [ -43.219262, -21.563015 ], [ -43.218435, -21.562732 ], [ -43.217573, -21.562078 ], [ -43.214917, -21.559679 ], [ -43.211377, -21.557753 ], [ -43.210375, -21.556891 ], [ -43.209623, -21.55571 ], [ -43.209413, -21.55515 ], [ -43.20807, -21.549395 ], [ -43.211584, -21.547885 ], [ -43.210396, -21.545623 ], [ -43.210398, -21.54494 ], [ -43.210694, -21.544549 ], [ -43.210583, -21.544374 ], [ -43.21017, -21.542752 ], [ -43.209562, -21.542204 ], [ -43.209372, -21.541988 ], [ -43.209305, -21.541776 ], [ -43.207508, -21.540059 ], [ -43.20876, -21.540177 ], [ -43.20988, -21.540106 ], [ -43.210754, -21.539783 ], [ -43.211555, -21.539088 ], [ -43.212181, -21.538364 ], [ -43.212547, -21.53744 ], [ -43.212437, -21.535894 ], [ -43.211782, -21.534094 ], [ -43.211595, -21.533854 ], [ -43.211429, -21.533414 ], [ -43.209754, -21.532223 ], [ -43.209314, -21.532051 ], [ -43.207905, -21.531809 ], [ -43.207739, -21.530231 ], [ -43.208345, -21.530248 ], [ -43.209183, -21.525163 ], [ -43.208609, -21.52443 ], [ -43.207679, -21.522438 ], [ -43.207804, -21.519312 ], [ -43.207336, -21.519279 ], [ -43.206532, -21.519388 ], [ -43.206082, -21.519653 ], [ -43.205867, -21.51988 ], [ -43.20517, -21.520163 ], [ -43.204401, -21.520707 ], [ -43.203028, -21.521417 ], [ -43.202557, -21.52177 ], [ -43.202393, -21.522159 ], [ -43.20259, -21.523418 ], [ -43.202468, -21.524273 ], [ -43.20249, -21.525361 ], [ -43.202214, -21.526073 ], [ -43.202039, -21.526188 ], [ -43.201858, -21.526225 ], [ -43.201154, -21.525991 ], [ -43.200836, -21.526004 ], [ -43.200351, -21.526239 ], [ -43.19955, -21.526974 ], [ -43.198941, -21.527348 ], [ -43.198374, -21.527445 ], [ -43.198139, -21.527378 ], [ -43.197932, -21.527205 ], [ -43.197691, -21.526589 ], [ -43.197521, -21.526344 ], [ -43.196357, -21.525641 ], [ -43.196057, -21.525559 ], [ -43.195587, -21.525658 ], [ -43.195439, -21.525758 ], [ -43.19495, -21.526504 ], [ -43.194893, -21.526819 ], [ -43.194717, -21.5271 ], [ -43.194432, -21.527365 ], [ -43.194094, -21.527542 ], [ -43.192707, -21.52764 ], [ -43.191736, -21.528031 ], [ -43.190582, -21.528194 ], [ -43.190155, -21.528119 ], [ -43.189533, -21.527731 ], [ -43.189308, -21.527677 ], [ -43.188635, -21.527751 ], [ -43.188461, -21.527729 ], [ -43.188315, -21.527617 ], [ -43.188064, -21.527195 ], [ -43.187947, -21.526223 ], [ -43.187819, -21.525916 ], [ -43.187705, -21.525928 ], [ -43.18751, -21.526042 ], [ -43.1869, -21.528044 ], [ -43.18468, -21.529395 ], [ -43.183561, -21.530556 ], [ -43.182411, -21.529461 ], [ -43.181971, -21.528939 ], [ -43.181287, -21.527023 ], [ -43.180738, -21.526341 ], [ -43.180437, -21.526123 ], [ -43.178349, -21.525293 ], [ -43.177671, -21.524856 ], [ -43.176985, -21.524179 ], [ -43.175731, -21.522588 ], [ -43.175086, -21.522077 ], [ -43.174314, -21.521729 ], [ -43.173747, -21.521589 ], [ -43.166808, -21.520138 ], [ -43.166171, -21.519835 ], [ -43.165507, -21.519354 ], [ -43.164887, -21.518633 ], [ -43.164467, -21.517796 ], [ -43.163904, -21.516239 ], [ -43.163545, -21.515509 ], [ -43.162419, -21.51421 ], [ -43.162539, -21.513381 ], [ -43.162686, -21.513139 ], [ -43.163208, -21.510801 ], [ -43.163561, -21.509523 ], [ -43.163841, -21.50882 ], [ -43.16395, -21.508084 ], [ -43.164205, -21.507162 ], [ -43.164198, -21.504942 ], [ -43.164392, -21.504032 ], [ -43.164882, -21.503421 ], [ -43.165974, -21.502693 ], [ -43.167019, -21.502598 ], [ -43.168175, -21.502687 ], [ -43.168692, -21.502847 ], [ -43.169642, -21.503903 ], [ -43.169877, -21.504328 ], [ -43.170074, -21.504454 ], [ -43.170223, -21.504695 ], [ -43.170617, -21.505062 ], [ -43.170839, -21.505177 ], [ -43.17159, -21.505347 ], [ -43.172611, -21.505425 ], [ -43.173373, -21.505354 ], [ -43.173853, -21.505433 ], [ -43.174396, -21.506191 ], [ -43.175149, -21.507029 ], [ -43.176959, -21.50791 ], [ -43.177291, -21.507955 ], [ -43.177574, -21.507851 ], [ -43.177869, -21.50785 ], [ -43.179173, -21.507939 ], [ -43.179702, -21.508087 ], [ -43.180797, -21.508222 ], [ -43.181794, -21.508622 ], [ -43.182152, -21.508978 ], [ -43.182559, -21.509586 ], [ -43.183116, -21.510517 ], [ -43.183834, -21.511953 ], [ -43.184463, -21.512792 ], [ -43.184848, -21.513723 ], [ -43.185119, -21.514125 ], [ -43.185613, -21.514641 ], [ -43.185847, -21.514721 ], [ -43.186093, -21.514674 ], [ -43.18694, -21.514212 ], [ -43.188031, -21.513322 ], [ -43.189751, -21.512788 ], [ -43.191605, -21.511966 ], [ -43.192133, -21.511642 ], [ -43.192404, -21.511618 ], [ -43.19287, -21.511421 ], [ -43.194673, -21.510001 ], [ -43.195422, -21.509688 ], [ -43.196529, -21.509558 ], [ -43.199677, -21.509722 ], [ -43.202101, -21.510187 ], [ -43.20375, -21.51032 ], [ -43.204844, -21.510259 ], [ -43.205397, -21.510097 ], [ -43.20676, -21.509517 ], [ -43.207618, -21.508847 ], [ -43.208907, -21.508257 ], [ -43.20919, -21.508244 ], [ -43.209449, -21.508324 ], [ -43.210702, -21.508044 ], [ -43.211612, -21.507961 ], [ -43.212263, -21.507763 ], [ -43.214316, -21.507654 ], [ -43.214819, -21.507422 ], [ -43.215211, -21.506799 ], [ -43.215455, -21.506154 ], [ -43.216122, -21.503632 ], [ -43.216317, -21.503171 ], [ -43.216489, -21.502987 ], [ -43.217201, -21.502708 ], [ -43.217717, -21.502615 ], [ -43.218565, -21.50252 ], [ -43.22052, -21.50248 ], [ -43.221639, -21.502327 ], [ -43.223074, -21.501241 ], [ -43.223221, -21.501056 ], [ -43.223404, -21.500572 ], [ -43.224142, -21.499886 ], [ -43.225368, -21.498144 ], [ -43.225966, -21.497701 ], [ -43.227116, -21.497242 ], [ -43.22731, -21.496987 ], [ -43.227555, -21.496904 ], [ -43.229064, -21.49658 ], [ -43.229569, -21.49661 ], [ -43.23052, -21.4959 ], [ -43.230753, -21.495829 ], [ -43.231516, -21.495856 ], [ -43.232995, -21.496269 ], [ -43.234039, -21.496202 ], [ -43.234284, -21.49613 ], [ -43.234529, -21.496036 ], [ -43.234588, -21.495794 ], [ -43.234808, -21.495596 ], [ -43.234903, -21.495342 ], [ -43.235355, -21.494852 ] ] ] } },
{ "type": "Feature", "properties": { "neighborhood_name": "Sede urbana – setor 009", "population": 430, "population_density": 2171.2, "enterprise_count": 90, "tower_count": 1, "health_facility_count": 5, "socioeconomic_index": 82.4, "income_mean_brl": 2655.39, "literacy_rate": 0.939, "sewer_network_rate": 1.0, "water_network_rate": 0.951, "apartment_share": 0.086, "area_km2": 0.198, "aproximado": false, "urbano": true, "estimation_note": "Setor censitário oficial IBGE 2022", "cd_setor": "312738805000009" }, "geometry": { "type": "Polygon", "coordinates": [ [ [ -43.189354, -21.532886 ], [ -43.190439, -21.532695 ], [ -43.190909, -21.532748 ], [ -43.19437, -21.533714 ], [ -43.194823, -21.533918 ], [ -43.196359, -21.535145 ], [ -43.198268, -21.537167 ], [ -43.199736, -21.538007 ], [ -43.20047, -21.538533 ], [ -43.198437, -21.540933 ], [ -43.198727, -21.539185 ], [ -43.197216, -21.538471 ], [ -43.196382, -21.537847 ], [ -43.195601, -21.536693 ], [ -43.195301, -21.535425 ], [ -43.195383, -21.535084 ], [ -43.194924, -21.534772 ], [ -43.193242, -21.534432 ], [ -43.192154, -21.534445 ], [ -43.191492, -21.534558 ], [ -43.190891, -21.534495 ], [ -43.190141, -21.534234 ], [ -43.189771, -21.533022 ], [ -43.189354, -21.532886 ] ] ] } },
{ "type": "Feature", "properties": { "neighborhood_name": "Sede urbana – setor 010", "population": 481, "population_density": 2807.8, "enterprise_count": 44, "tower_count": 0, "health_facility_count": 0, "socioeconomic_index": 43.5, "income_mean_brl": 1531.01, "literacy_rate": 0.928, "sewer_network_rate": 0.979, "water_network_rate": 0.978, "apartment_share": 0.037, "area_km2": 0.171, "aproximado": false, "urbano": true, "estimation_note": "Setor censitário oficial IBGE 2022", "cd_setor": "312738805000010" }, "geometry": { "type": "Polygon", "coordinates": [ [ [ -43.201394, -21.533888 ], [ -43.20132, -21.533648 ], [ -43.201345, -21.533291 ], [ -43.201639, -21.533354 ], [ -43.201789, -21.533849 ], [ -43.202019, -21.534031 ], [ -43.202647, -21.534316 ], [ -43.202657, -21.534694 ], [ -43.203281, -21.535188 ], [ -43.205546, -21.535296 ], [ -43.207242, -21.535725 ], [ -43.207589, -21.535954 ], [ -43.207949, -21.536852 ], [ -43.208066, -21.537594 ], [ -43.207449, -21.53944 ], [ -43.207396, -21.539815 ], [ -43.207508, -21.540059 ], [ -43.207198, -21.540114 ], [ -43.206558, -21.540086 ], [ -43.206019, -21.539893 ], [ -43.204551, -21.538269 ], [ -43.203925, -21.538056 ], [ -43.205161, -21.536522 ], [ -43.204513, -21.536145 ], [ -43.202809, -21.535347 ], [ -43.201877, -21.534183 ], [ -43.201681, -21.534009 ], [ -43.201394, -21.533888 ] ] ] } },
{ "type": "Feature", "properties": { "neighborhood_name": "Sede urbana – setor 011", "population": 398, "population_density": 5469.6, "enterprise_count": 43, "tower_count": 0, "health_facility_count": 0, "socioeconomic_index": 54.9, "income_mean_brl": 1782.98, "literacy_rate": 0.938, "sewer_network_rate": 1.0, "water_network_rate": 1.0, "apartment_share": 0.0, "area_km2": 0.073, "aproximado": false, "urbano": true, "estimation_note": "Setor censitário oficial IBGE 2022", "cd_setor": "312738805000011" }, "geometry": { "type": "Polygon", "coordinates": [ [ [ -43.201991, -21.535614 ], [ -43.201394, -21.533888 ], [ -43.201681, -21.534009 ], [ -43.201877, -21.534183 ], [ -43.202809, -21.535347 ], [ -43.204513, -21.536145 ], [ -43.205161, -21.536522 ], [ -43.203925, -21.538056 ], [ -43.203328, -21.53784 ], [ -43.202757, -21.537988 ], [ -43.201947, -21.537781 ], [ -43.202325, -21.536839 ], [ -43.202397, -21.536273 ], [ -43.201991, -21.535614 ] ] ] } },
{ "type": "Feature", "properties": { "neighborhood_name": "Sede urbana – setor 012", "population": 182, "population_density": 179.4, "enterprise_count": 18, "tower_count": 0, "health_facility_count": 0, "socioeconomic_index": 78.8, "income_mean_brl": 2460.54, "literacy_rate": 0.973, "sewer_network_rate": null, "water_network_rate": 0.933, "apartment_share": 0.0, "area_km2": 1.015, "aproximado": false, "urbano": true, "estimation_note": "Setor censitário oficial IBGE 2022", "cd_setor": "312738805000012" }, "geometry": { "type": "Polygon", "coordinates": [ [ [ -43.194094, -21.527542 ], [ -43.194432, -21.527365 ], [ -43.194717, -21.5271 ], [ -43.194893, -21.526819 ], [ -43.19495, -21.526504 ], [ -43.195439, -21.525758 ], [ -43.195587, -21.525658 ], [ -43.196057, -21.525559 ], [ -43.196357, -21.525641 ], [ -43.197521, -21.526344 ], [ -43.197691, -21.526589 ], [ -43.197932, -21.527205 ], [ -43.198139, -21.527378 ], [ -43.198374, -21.527445 ], [ -43.198941, -21.527348 ], [ -43.19955, -21.526974 ], [ -43.200351, -21.526239 ], [ -43.200836, -21.526004 ], [ -43.201154, -21.525991 ], [ -43.201858, -21.526225 ], [ -43.202039, -21.526188 ], [ -43.202214, -21.526073 ], [ -43.20249, -21.525361 ], [ -43.202468, -21.524273 ], [ -43.20259, -21.523418 ], [ -43.202393, -21.522159 ], [ -43.202557, -21.52177 ], [ -43.203028, -21.521417 ], [ -43.204401, -21.520707 ], [ -43.20517, -21.520163 ], [ -43.205867, -21.51988 ], [ -43.206082, -21.519653 ], [ -43.206532, -21.519388 ], [ -43.207336, -21.519279 ], [ -43.207804, -21.519312 ], [ -43.207679, -21.522438 ], [ -43.208609, -21.52443 ], [ -43.209183, -21.525163 ], [ -43.208789, -21.527561 ], [ -43.207689, -21.527726 ], [ -43.207358, -21.527986 ], [ -43.206302, -21.528461 ], [ -43.205564, -21.529249 ], [ -43.204579, -21.529565 ], [ -43.203218, -21.530645 ], [ -43.202046, -21.531697 ], [ -43.201345, -21.533291 ], [ -43.201231, -21.533308 ], [ -43.200537, -21.533044 ], [ -43.199852, -21.532349 ], [ -43.19962, -21.531633 ], [ -43.199564, -21.530736 ], [ -43.197523, -21.5309 ], [ -43.196602, -21.530354 ], [ -43.196479, -21.530364 ], [ -43.196428, -21.530175 ], [ -43.195194, -21.528144 ], [ -43.194738, -21.527747 ], [ -43.194094, -21.527542 ] ] ] } },
{ "type": "Feature", "properties": { "neighborhood_name": "Sede urbana – setor 013", "population": 426, "population_density": 2620.6, "enterprise_count": 77, "tower_count": 2, "health_facility_count": 1, "socioeconomic_index": 85.5, "income_mean_brl": 2721.39, "literacy_rate": 0.944, "sewer_network_rate": 0.982, "water_network_rate": 0.964, "apartment_share": 0.059, "area_km2": 0.163, "aproximado": false, "urbano": true, "estimation_note": "Setor censitário oficial IBGE 2022", "cd_setor": "312738805000013" }, "geometry": { "type": "Polygon", "coordinates": [ [ [ -43.197373, -21.536217 ], [ -43.197818, -21.535857 ], [ -43.198192, -21.534074 ], [ -43.201394, -21.533888 ], [ -43.201991, -21.535614 ], [ -43.200807, -21.538323 ], [ -43.200276, -21.538352 ], [ -43.198268, -21.537167 ], [ -43.197373, -21.536217 ] ] ] } },
{ "type": "Feature", "properties": { "neighborhood_name": "Sede urbana – setor 014", "population": 206, "population_density": 234.7, "enterprise_count": 55, "tower_count": 0, "health_facility_count": 2, "socioeconomic_index": 41.3, "income_mean_brl": 1695.7, "literacy_rate": 0.955, "sewer_network_rate": null, "water_network_rate": 0.886, "apartment_share": 0.089, "area_km2": 0.878, "aproximado": false, "urbano": true, "estimation_note": "Setor censitário oficial IBGE 2022", "cd_setor": "312738805000014" }, "geometry": { "type": "Polygon", "coordinates": [ [ [ -43.183561, -21.530556 ], [ -43.18468, -21.529395 ], [ -43.1869, -21.528044 ], [ -43.18751, -21.526042 ], [ -43.187819, -21.525916 ], [ -43.187947, -21.526223 ], [ -43.188064, -21.527195 ], [ -43.188315, -21.527617 ], [ -43.188461, -21.527729 ], [ -43.189308, -21.527677 ], [ -43.189533, -21.527731 ], [ -43.190155, -21.528119 ], [ -43.190582, -21.528194 ], [ -43.191736, -21.528031 ], [ -43.192707, -21.52764 ], [ -43.194094, -21.527542 ], [ -43.194738, -21.527747 ], [ -43.195194, -21.528144 ], [ -43.196428, -21.530175 ], [ -43.196479, -21.530364 ], [ -43.196602, -21.530354 ], [ -43.197523, -21.5309 ], [ -43.199564, -21.530736 ], [ -43.19962, -21.531633 ], [ -43.199852, -21.532349 ], [ -43.200537, -21.533044 ], [ -43.201231, -21.533308 ], [ -43.201345, -21.533291 ], [ -43.20132, -21.533648 ], [ -43.201394, -21.533888 ], [ -43.198192, -21.534074 ], [ -43.197818, -21.535857 ], [ -43.197373, -21.536217 ], [ -43.196359, -21.535145 ], [ -43.195061, -21.534066 ], [ -43.19437, -21.533714 ], [ -43.190909, -21.532748 ], [ -43.190439, -21.532695 ], [ -43.188377, -21.533047 ], [ -43.185795, -21.532462 ], [ -43.185269, -21.53213 ], [ -43.183561, -21.530556 ] ] ] } }
]
}
